[{"OBJECT_NAME":"ONEWEB-0593","OBJECT_ID":"2022-166T","EPOCH":"2025-11-25T20:43:13.071936","MEAN_MOTION":13.21824553,"ECCENTRICITY":0.00019195,"INCLINATION":87.9201,"RA_OF_ASC_NODE":284.5358,"ARG_OF_PERICENTER":84.5047,"MEAN_ANOMALY":275.6305,"EPHEMERIS_TYPE":0,"CLASSIFICATION_TYPE":"U","NORAD_CAT_ID":54659,"ELEMENT_SET_NO":999,"REV_AT_EPOCH":14468,"BSTAR":0.00012712231,"MEAN_MOTION_DOT":6.6e-7,"MEAN_MOTION_DDOT":0},{"OBJECT_NAME":"ONEWEB-0594","OBJECT_ID":"2022-166U","EPOCH":"2025-11-26T02:38:37.713408","MEAN_MOTION":13.21826162,"ECCENTRICITY":0.0001914,"INCLINATION":87.9201,"RA_OF_ASC_NODE":284.5047,"ARG_OF_PERICENTER":79.9326,"MEAN_ANOMALY":280.2024,"EPHEMERIS_TYPE":0,"CLASSIFICATION_TYPE":"U","NORAD_CAT_ID":54660,"ELEMENT_SET_NO":999,"REV_AT_EPOCH":14473,"BSTAR":-0.00097354,"MEAN_MOTION_DOT":-3.89e-6,"MEAN_MOTION_DDOT":0},{"OBJECT_NAME":"ONEWEB-0595","OBJECT_ID":"2022-166V","EPOCH":"2025-11-26T03:54:28.505088","MEAN_MOTION":13.21827352,"ECCENTRICITY":0.0001908,"INCLINATION":87.9205,"RA_OF_ASC_NODE":284.4672,"ARG_OF_PERICENTER":74.4316,"MEAN_ANOMALY":285.7028,"EPHEMERIS_TYPE":0,"CLASSIFICATION_TYPE":"U","NORAD_CAT_ID":54661,"ELEMENT_SET_NO":999,"REV_AT_EPOCH":14471,"BSTAR":0.00014556,"MEAN_MOTION_DOT":7.3e-7,"MEAN_MOTION_DDOT":0},{"OBJECT_NAME":"ONEWEB-0596","OBJECT_ID":"2022-166W","EPOCH":"2025-11-26T03:16:33.906720","MEAN_MOTION":13.2182351,"ECCENTRICITY":0.0001838,"INCLINATION":87.9201,"RA_OF_ASC_NODE":284.489,"ARG_OF_PERICENTER":78.7435,"MEAN_ANOMALY":281.3906,"EPHEMERIS_TYPE":0,"CLASSIFICATION_TYPE":"U","NORAD_CAT_ID":54662,"ELEMENT_SET_NO":999,"REV_AT_EPOCH":14471,"BSTAR":0.00015001,"MEAN_MOTION_DOT":7.5e-7,"MEAN_MOTION_DDOT":0},{"OBJECT_NAME":"ONEWEB-0597","OBJECT_ID":"2022-166X","EPOCH":"2025-11-26T02:50:29.321088","MEAN_MOTION":13.21823484,"ECCENTRICITY":0.0001834,"INCLINATION":87.9201,"RA_OF_ASC_NODE":284.4976,"ARG_OF_PERICENTER":84.4479,"MEAN_ANOMALY":275.6864,"EPHEMERIS_TYPE":0,"CLASSIFICATION_TYPE":"U","NORAD_CAT_ID":54663,"ELEMENT_SET_NO":999,"REV_AT_EPOCH":14471,"BSTAR":0.00017146,"MEAN_MOTION_DOT":8.4e-7,"MEAN_MOTION_DDOT":0},{"OBJECT_NAME":"ONEWEB-0600","OBJECT_ID":"2022-166Y","EPOCH":"2025-11-26T04:13:25.076352","MEAN_MOTION":13.21828722,"ECCENTRICITY":0.0001905,"INCLINATION":87.9203,"RA_OF_ASC_NODE":284.4768,"ARG_OF_PERICENTER":85.5879,"MEAN_ANOMALY":274.5472,"EPHEMERIS_TYPE":0,"CLASSIFICATION_TYPE":"U","NORAD_CAT_ID":54664,"ELEMENT_SET_NO":999,"REV_AT_EPOCH":14469,"BSTAR":-0.00012806,"MEAN_MOTION_DOT":-4.0e-7,"MEAN_MOTION_DDOT":0},{"OBJECT_NAME":"ONEWEB-0601","OBJECT_ID":"2022-166Z","EPOCH":"2025-11-26T04:01:34.249728","MEAN_MOTION":13.21826148,"ECCENTRICITY":0.0001683,"INCLINATION":87.9204,"RA_OF_ASC_NODE":284.4962,"ARG_OF_PERICENTER":87.7843,"MEAN_ANOMALY":272.3483,"EPHEMERIS_TYPE":0,"CLASSIFICATION_TYPE":"U","NORAD_CAT_ID":54665,"ELEMENT_SET_NO":999,"REV_AT_EPOCH":14488,"BSTAR":-0.00078054,"MEAN_MOTION_DOT":-3.09e-6,"MEAN_MOTION_DDOT":0},{"OBJECT_NAME":"ONEWEB-0602","OBJECT_ID":"2022-166AA","EPOCH":"2025-11-26T03:10:39.601920","MEAN_MOTION":13.21825979,"ECCENTRICITY":0.0002143,"INCLINATION":87.9201,"RA_OF_ASC_NODE":284.5075,"ARG_OF_PERICENTER":88.7188,"MEAN_ANOMALY":271.4192,"EPHEMERIS_TYPE":0,"CLASSIFICATION_TYPE":"U","NORAD_CAT_ID":54666,"ELEMENT_SET_NO":999,"REV_AT_EPOCH":14472,"BSTAR":0.00010509,"MEAN_MOTION_DOT":5.6e-7,"MEAN_MOTION_DDOT":0},{"OBJECT_NAME":"ONEWEB-0603","OBJECT_ID":"2022-166AB","EPOCH":"2025-11-26T03:18:57.661632","MEAN_MOTION":13.21826777,"ECCENTRICITY":0.0001845,"INCLINATION":87.9208,"RA_OF_ASC_NODE":284.4439,"ARG_OF_PERICENTER":85.6059,"MEAN_ANOMALY":274.5286,"EPHEMERIS_TYPE":0,"CLASSIFICATION_TYPE":"U","NORAD_CAT_ID":54667,"ELEMENT_SET_NO":999,"REV_AT_EPOCH":14465,"BSTAR":0.00011801,"MEAN_MOTION_DOT":6.2e-7,"MEAN_MOTION_DDOT":0},{"OBJECT_NAME":"ONEWEB-0604","OBJECT_ID":"2022-166AC","EPOCH":"2025-11-25T21:35:20.383008","MEAN_MOTION":13.2182717,"ECCENTRICITY":0.00019006,"INCLINATION":87.9202,"RA_OF_ASC_NODE":284.513,"ARG_OF_PERICENTER":88.0347,"MEAN_ANOMALY":272.1005,"EPHEMERIS_TYPE":0,"CLASSIFICATION_TYPE":"U","NORAD_CAT_ID":54668,"ELEMENT_SET_NO":999,"REV_AT_EPOCH":14458,"BSTAR":0.0003724884,"MEAN_MOTION_DOT":1.67e-6,"MEAN_MOTION_DDOT":0},{"OBJECT_NAME":"ONEWEB-0605","OBJECT_ID":"2022-166AD","EPOCH":"2025-11-26T04:41:51.478944","MEAN_MOTION":13.21824321,"ECCENTRICITY":0.0001286,"INCLINATION":87.9199,"RA_OF_ASC_NODE":284.4819,"ARG_OF_PERICENTER":91.158,"MEAN_ANOMALY":268.9701,"EPHEMERIS_TYPE":0,"CLASSIFICATION_TYPE":"U","NORAD_CAT_ID":54669,"ELEMENT_SET_NO":999,"REV_AT_EPOCH":14469,"BSTAR":8.5966e-5,"MEAN_MOTION_DOT":4.9e-7,"MEAN_MOTION_DDOT":0},{"OBJECT_NAME":"ONEWEB-0606","OBJECT_ID":"2022-166AE","EPOCH":"2025-11-25T21:56:39.985152","MEAN_MOTION":13.21823334,"ECCENTRICITY":0.00019309,"INCLINATION":87.9203,"RA_OF_ASC_NODE":284.5487,"ARG_OF_PERICENTER":75.696,"MEAN_ANOMALY":284.4388,"EPHEMERIS_TYPE":0,"CLASSIFICATION_TYPE":"U","NORAD_CAT_ID":54670,"ELEMENT_SET_NO":999,"REV_AT_EPOCH":14471,"BSTAR":-8.170675e-6,"MEAN_MOTION_DOT":1.0e-7,"MEAN_MOTION_DDOT":0},{"OBJECT_NAME":"ONEWEB-0607","OBJECT_ID":"2022-166AF","EPOCH":"2025-11-26T02:36:16.380288","MEAN_MOTION":13.2182376,"ECCENTRICITY":0.000183,"INCLINATION":87.9198,"RA_OF_ASC_NODE":284.4741,"ARG_OF_PERICENTER":85.5783,"MEAN_ANOMALY":274.556,"EPHEMERIS_TYPE":0,"CLASSIFICATION_TYPE":"U","NORAD_CAT_ID":54671,"ELEMENT_SET_NO":999,"REV_AT_EPOCH":14471,"BSTAR":-0.00024815,"MEAN_MOTION_DOT":-8.9e-7,"MEAN_MOTION_DDOT":0},{"OBJECT_NAME":"ONEWEB-0608","OBJECT_ID":"2022-166AG","EPOCH":"2025-11-26T02:45:45.739008","MEAN_MOTION":13.21829526,"ECCENTRICITY":0.0001473,"INCLINATION":87.9208,"RA_OF_ASC_NODE":284.4592,"ARG_OF_PERICENTER":95.4081,"MEAN_ANOMALY":264.7221,"EPHEMERIS_TYPE":0,"CLASSIFICATION_TYPE":"U","NORAD_CAT_ID":54672,"ELEMENT_SET_NO":999,"REV_AT_EPOCH":14472,"BSTAR":0.0001935,"MEAN_MOTION_DOT":9.3e-7,"MEAN_MOTION_DDOT":0},{"OBJECT_NAME":"ONEWEB-0610","OBJECT_ID":"2022-166AH","EPOCH":"2025-11-25T20:50:18.637728","MEAN_MOTION":13.21827685,"ECCENTRICITY":0.00015567,"INCLINATION":87.9201,"RA_OF_ASC_NODE":284.5426,"ARG_OF_PERICENTER":100.1013,"MEAN_ANOMALY":260.0297,"EPHEMERIS_TYPE":0,"CLASSIFICATION_TYPE":"U","NORAD_CAT_ID":54673,"ELEMENT_SET_NO":999,"REV_AT_EPOCH":14459,"BSTAR":0.00011965142,"MEAN_MOTION_DOT":6.2e-7,"MEAN_MOTION_DDOT":0},{"OBJECT_NAME":"ONEWEB-0611","OBJECT_ID":"2022-166AJ","EPOCH":"2025-11-26T03:56:51.808128","MEAN_MOTION":13.21825722,"ECCENTRICITY":0.0002088,"INCLINATION":87.9206,"RA_OF_ASC_NODE":284.4789,"ARG_OF_PERICENTER":75.3875,"MEAN_ANOMALY":284.749,"EPHEMERIS_TYPE":0,"CLASSIFICATION_TYPE":"U","NORAD_CAT_ID":54674,"ELEMENT_SET_NO":999,"REV_AT_EPOCH":14462,"BSTAR":0.00034394,"MEAN_MOTION_DOT":1.55e-6,"MEAN_MOTION_DDOT":0},{"OBJECT_NAME":"ONEWEB-0612","OBJECT_ID":"2022-166AK","EPOCH":"2025-11-26T04:15:47.257920","MEAN_MOTION":13.21828543,"ECCENTRICITY":0.0001779,"INCLINATION":87.9205,"RA_OF_ASC_NODE":284.4556,"ARG_OF_PERICENTER":85.5314,"MEAN_ANOMALY":274.6023,"EPHEMERIS_TYPE":0,"CLASSIFICATION_TYPE":"U","NORAD_CAT_ID":54675,"ELEMENT_SET_NO":999,"REV_AT_EPOCH":14461,"BSTAR":1.3639e-5,"MEAN_MOTION_DOT":1.9e-7,"MEAN_MOTION_DDOT":0}]
