ONEWEB-0593             
1 54659U 22166T   25329.86334574  .00000066  00000+0  12712-3 0  9994
2 54659  87.9201 284.5358 0001919  84.5047 275.6305 13.21824553144686
ONEWEB-0594             
1 54660U 22166U   25330.11015872 -.00000389  00000+0 -97354-3 0  9998
2 54660  87.9201 284.5047 0001914  79.9326 280.2024 13.21826162144730
ONEWEB-0595             
1 54661U 22166V   25330.16282992  .00000073  00000+0  14556-3 0  9994
2 54661  87.9205 284.4672 0001908  74.4316 285.7028 13.21827352144714
ONEWEB-0596             
1 54662U 22166W   25330.13650355  .00000075  00000+0  15001-3 0  9992
2 54662  87.9201 284.4890 0001838  78.7435 281.3906 13.21823510144713
ONEWEB-0597             
1 54663U 22166X   25330.11839492  .00000084  00000+0  17146-3 0  9994
2 54663  87.9201 284.4976 0001834  84.4479 275.6864 13.21823484144716
ONEWEB-0600             
1 54664U 22166Y   25330.17598468 -.00000040  00000+0 -12806-3 0  9998
2 54664  87.9203 284.4768 0001905  85.5879 274.5472 13.21828722144693
ONEWEB-0601             
1 54665U 22166Z   25330.16775752 -.00000309  00000+0 -78054-3 0  9996
2 54665  87.9204 284.4962 0001683  87.7843 272.3483 13.21826148144888
ONEWEB-0602             
1 54666U 22166AA  25330.13240280  .00000056  00000+0  10509-3 0  9995
2 54666  87.9201 284.5075 0002143  88.7188 271.4192 13.21825979144728
ONEWEB-0603             
1 54667U 22166AB  25330.13816738  .00000062  00000+0  11801-3 0  9996
2 54667  87.9208 284.4439 0001845  85.6059 274.5286 13.21826777144657
ONEWEB-0604             
1 54668U 22166AC  25329.89954147  .00000167  00000+0  37249-3 0  9995
2 54668  87.9202 284.5130 0001900  88.0347 272.1005 13.21827170144583
ONEWEB-0605             
1 54669U 22166AD  25330.19573471  .00000049  00000+0  85966-4 0  9997
2 54669  87.9199 284.4819 0001286  91.1580 268.9701 13.21824321144696
ONEWEB-0606             
1 54670U 22166AE  25329.91435168  .00000010  00000+0 -81707-5 0  9996
2 54670  87.9203 284.5487 0001930  75.6960 284.4388 13.21823334144711
ONEWEB-0607             
1 54671U 22166AF  25330.10852292 -.00000089  00000+0 -24815-3 0  9993
2 54671  87.9198 284.4741 0001830  85.5783 274.5560 13.21823760144714
ONEWEB-0608             
1 54672U 22166AG  25330.11511272  .00000093  00000+0  19350-3 0  9996
2 54672  87.9208 284.4592 0001473  95.4081 264.7221 13.21829526144727
ONEWEB-0610             
1 54673U 22166AH  25329.86827127  .00000062  00000+0  11965-3 0  9996
2 54673  87.9201 284.5426 0001556 100.1013 260.0297 13.21827685144590
ONEWEB-0611             
1 54674U 22166AJ  25330.16448852  .00000155  00000+0  34394-3 0  9990
2 54674  87.9206 284.4789 0002088  75.3875 284.7490 13.21825722144629
ONEWEB-0612             
1 54675U 22166AK  25330.17763030  .00000019  00000+0  13639-4 0  9999
2 54675  87.9205 284.4556 0001779  85.5314 274.6023 13.21828543144611
